      2.10          N: GNSS NAV DATA                        RINEX VERSION / TYPE
fic2rin                                 07/27/2021 00:16:47 PGM / RUN BY / DATE
                                                            END OF HEADER
 7 21  7 26  6  0  0.0 2.109650522470e-04 8.526512829121e-12 0.000000000000e+00
    5.400000000000e+01 2.256250000000e+01 5.173786937564e-09 2.540533293672e+00
    1.046806573868e-06 1.520654209889e-02 5.787238478661e-06 5.153740097046e+03
    1.080000000000e+05-6.332993507385e-08-1.423736777997e+00-2.793967723846e-07
    9.509939360975e-01 2.647500000000e+02-2.315657638790e+00-8.079265105250e-09
    3.589435228671e-10 1.000000000000e+00 2.168000000000e+03 0.000000000000e+00
    2.400000000000e+00 0.000000000000e+00-1.117587089539e-08 5.400000000000e+01
    1.008000000000e+05 4.000000000000e+00
 4 21  7 26  6  0  0.0-2.030334435403e-04-6.821210263297e-13 0.000000000000e+00
    9.200000000000e+01-3.309375000000e+01 4.268034923643e-09-1.466823378579e+00
   -1.912936568260e-06 1.315437839366e-03 1.177936792374e-05 5.153722009659e+03
    1.080000000000e+05 3.352761268616e-08-2.445020699143e+00 9.313225746155e-09
    9.607321106916e-01 1.505000000000e+02-2.966920764502e+00-7.796039022032e-09
    5.403796518387e-10 1.000000000000e+00 2.168000000000e+03 0.000000000000e+00
    2.400000000000e+00 0.000000000000e+00-4.190951585770e-09 8.600000000000e+02
    1.008000000000e+05 4.000000000000e+00
29 21  7 26  6  0  0.0-3.861654549837e-04-6.025402399246e-12 0.000000000000e+00
    3.800000000000e+01 1.090312500000e+02 3.766585464832e-09-8.450106341533e-01
    5.606561899185e-06 1.979796448722e-03 1.011230051517e-05 5.153606510162e+03
    1.080000000000e+05-4.842877388000e-08 7.358778041729e-01 1.676380634308e-08
    9.837183968026e-01 1.972187500000e+02 2.252261552785e+00-7.648532877809e-09
   -1.214336296267e-11 1.000000000000e+00 2.168000000000e+03 0.000000000000e+00
    2.400000000000e+00 0.000000000000e+00-1.024454832077e-08 3.800000000000e+01
    1.008000000000e+05 4.000000000000e+00
15 21  7 26  6  0  0.0-1.329076476395e-04 2.728484105319e-12 0.000000000000e+00
    9.100000000000e+01-3.390625000000e+01 4.926990943235e-09-1.805639553529e+00
   -1.924112439156e-06 1.337569684256e-02 1.102685928345e-05 5.153654161453e+03
    1.080000000000e+05 2.421438694000e-07-2.596955179596e+00-1.136213541031e-07
    9.294517446988e-01 1.410312500000e+02 1.003280396918e+00-7.951759794142e-09
    4.689481049995e-10 1.000000000000e+00 2.168000000000e+03 0.000000000000e+00
    2.400000000000e+00 0.000000000000e+00-1.071020960808e-08 9.100000000000e+01
    1.008000000000e+05 4.000000000000e+00
13 21  7 26  6  0  0.0 1.626615412533e-04 5.115907697473e-12 0.000000000000e+00
    5.100000000000e+01-1.053125000000e+01 4.228033257413e-09-1.458641273372e+00
   -5.159527063370e-07 5.158499348909e-03 1.108460128307e-05 5.153684570312e+03
    1.080000000000e+05 1.341104507446e-07-2.346757757183e+00 0.000000000000e+00
    9.682550688987e-01 1.672500000000e+02 9.559863722582e-01-7.740679573232e-09
    5.407368095729e-10 1.000000000000e+00 2.168000000000e+03 0.000000000000e+00
    2.400000000000e+00 0.000000000000e+00-1.117587089539e-08 5.100000000000e+01
    1.008000000000e+05 4.000000000000e+00
14 21  7 26  6  0  0.0 3.857351839542e-05-8.867573342286e-12 0.000000000000e+00
    1.320000000000e+02-2.593750000000e+01 4.886632119271e-09 1.841966439764e+00
   -1.221895217896e-06 9.233716409653e-04 8.504837751389e-06 5.153750707626e+03
    1.080000000000e+05 7.450580596924e-08-3.406331660186e-01 1.490116119385e-08
    9.564968970208e-01 2.134062500000e+02 2.994876126898e+00-8.164268645988e-09
   -6.321691895271e-10 1.000000000000e+00 2.168000000000e+03 0.000000000000e+00
    2.400000000000e+00 0.000000000000e+00-7.916241884232e-09 3.880000000000e+02
    1.008000000000e+05 4.000000000000e+00
11 21  7 26  6  0  0.0 2.351915463805e-05 6.934897101019e-12 0.000000000000e+00
    1.000000000000e+02 4.075000000000e+01 4.639836124941e-09 1.605129998850e-01
    2.272427082062e-06 5.192849785089e-04 1.704320311546e-06 5.153672328949e+03
    1.080000000000e+05-3.725290298462e-08 1.769186486221e+00-4.842877388000e-08
    9.597039586992e-01 3.493437500000e+02 1.744205708803e+00-8.421422214609e-09
    8.964659128322e-11 1.000000000000e+00 2.168000000000e+03 0.000000000000e+00
    3.840000000000e+02 6.300000000000e+01-5.587935447693e-09 3.560000000000e+02
    1.008000000000e+05 4.000000000000e+00
32 21  7 26  6  0  0.0 1.193257048726e-05-2.273736754432e-12 0.000000000000e+00
    3.400000000000e+01-3.521875000000e+01 4.404469178106e-09-2.006616264765e-01
   -1.762062311172e-06 5.060419789515e-03 1.245737075806e-05 5.153704902649e+03
    1.080000000000e+05 3.725290298462e-09-2.486033155454e+00 9.872019290924e-08
    9.576042791934e-01 1.406562500000e+02-2.361457172673e+00-7.918544124861e-09
    5.310935507496e-10 1.000000000000e+00 2.168000000000e+03 0.000000000000e+00
    2.400000000000e+00 0.000000000000e+00 4.656612873077e-10 3.400000000000e+01
    1.008000000000e+05 4.000000000000e+00
31 21  7 26  6  0  0.0-1.307232305408e-04-2.046363078989e-12 0.000000000000e+00
    8.200000000000e+01 2.078125000000e+01 5.273433945405e-09 2.036426904257e+00
    1.203268766403e-06 1.005316886585e-02 5.662441253662e-06 5.153566417694e+03
    1.080000000000e+05-1.806765794754e-07-1.406435928433e+00 1.881271600723e-07
    9.552908234687e-01 2.696562500000e+02 2.734215263383e-01-8.346061932694e-09
    2.960837616486e-10 1.000000000000e+00 2.168000000000e+03 0.000000000000e+00
    2.400000000000e+00 0.000000000000e+00-1.303851604462e-08 8.200000000000e+01
    1.008000000000e+05 4.000000000000e+00
30 21  7 26  6  0  0.0-4.550637677312e-04-4.320099833421e-12 0.000000000000e+00
    9.900000000000e+01 2.418750000000e+01 5.636663361083e-09 2.394836043448e+00
    1.333653926849e-06 5.360126961023e-03 5.325302481651e-06 5.153665048599e+03
    1.080000000000e+05-1.769512891769e-07-1.407473425546e+00-3.911554813385e-08
    9.361985005168e-01 2.661250000000e+02-2.740454154024e+00-8.510711648158e-09
    3.635865734116e-10 1.000000000000e+00 2.168000000000e+03 0.000000000000e+00
    2.400000000000e+00 0.000000000000e+00 3.725290298462e-09 9.900000000000e+01
    1.008000000000e+05 4.000000000000e+00
27 21  7 26  6  0  0.0-1.686383038759e-04-5.798028723802e-12 0.000000000000e+00
    7.900000000000e+01 1.077812500000e+02 3.885876148053e-09-9.602427426503e-01
    5.522742867470e-06 9.435598854907e-03 1.135654747486e-05 5.153694290161e+03
    1.080000000000e+05 2.402812242508e-07 6.622036682865e-01 6.705522537231e-08
    9.756138994006e-01 1.697187500000e+02 6.363915174497e-01-7.736393680421e-09
   -1.550064566411e-10 1.000000000000e+00 2.168000000000e+03 0.000000000000e+00
    2.400000000000e+00 0.000000000000e+00 1.862645149231e-09 7.900000000000e+01
    1.008000000000e+05 4.000000000000e+00
25 21  7 26  6  0  0.0 1.800577156246e-04 6.593836587854e-12 0.000000000000e+00
    5.100000000000e+01-2.318750000000e+01 4.748412076137e-09 1.585023532809e+00
   -1.298263669014e-06 9.829548536800e-03 8.812174201012e-06 5.153593299866e+03
    1.080000000000e+05-2.775341272354e-07-3.867718920875e-01 9.313225746155e-09
    9.603678952920e-01 2.110625000000e+02 9.699165327567e-01-8.078550789781e-09
   -6.146684605515e-10 1.000000000000e+00 2.168000000000e+03 0.000000000000e+00
    2.400000000000e+00 0.000000000000e+00 5.587935447693e-09 5.100000000000e+01
    1.008000000000e+05 4.000000000000e+00
26 21  7 26  6  0  0.0 1.150690950453e-04 4.547473508865e-12 0.000000000000e+00
    7.300000000000e+01-2.734375000000e+01 5.313435611635e-09 9.129696581994e-01
   -1.223757863045e-06 5.954247433692e-03 7.888302206993e-06 5.153591995239e+03
    1.080000000000e+05 6.891787052155e-08-4.299198913406e-01 3.539025783539e-08
    9.412347671661e-01 2.137812500000e+02 2.984011670692e-01-8.403564327900e-09
   -7.353877747097e-10 1.000000000000e+00 2.168000000000e+03 0.000000000000e+00
    2.400000000000e+00 0.000000000000e+00 6.984919309616e-09 7.300000000000e+01
    1.008000000000e+05 4.000000000000e+00
24 21  7 26  6  0  0.0 1.876549795270e-04 1.307398633799e-11 0.000000000000e+00
    4.000000000000e+01 3.181250000000e+01 5.595947379384e-09-2.771718849238e+00
    1.443549990654e-06 1.126924459822e-02 5.491077899933e-06 5.153711914062e+03
    1.080000000000e+05 5.587935447693e-08-1.503065241478e+00-2.179294824600e-07
    9.344158455992e-01 2.602187500000e+02 7.459571868539e-01-8.402135696963e-09
    4.439470636057e-10 1.000000000000e+00 2.168000000000e+03 0.000000000000e+00
    2.400000000000e+00 0.000000000000e+00 2.793967723846e-09 4.000000000000e+01
    1.008000000000e+05 4.000000000000e+00
20 21  7 26  6  0  0.0 5.199899896979e-04-2.273736754432e-13 0.000000000000e+00
    4.400000000000e+01-1.078125000000e+02 4.901989901841e-09-1.978736023212e+00
   -5.539506673813e-06 5.518356920220e-03 4.101544618607e-06 5.153629564285e+03
    1.080000000000e+05-6.705522537231e-08 2.610046140064e+00-1.080334186554e-07
    9.392789715051e-01 2.878125000000e+02 2.968401040104e+00-8.484996291296e-09
   -1.503634060966e-10 1.000000000000e+00 2.168000000000e+03 0.000000000000e+00
    2.400000000000e+00 0.000000000000e+00-8.381903171539e-09 4.400000000000e+01
    1.008000000000e+05 4.000000000000e+00
16 21  7 26  6  0  0.0-3.631957806647e-04-6.139089236967e-12 0.000000000000e+00
    9.300000000000e+01-1.606250000000e+01 4.476972198148e-09-1.637738398949e-02
   -7.487833499908e-07 1.217643567361e-02 9.113922715187e-06 5.153727735519e+03
    1.080000000000e+05 4.097819328308e-08-2.938703459309e-01 1.154839992523e-07
    9.731171561327e-01 2.082187500000e+02 6.787834484552e-01-8.068550373224e-09
   -7.382450365833e-10 1.000000000000e+00 2.168000000000e+03 0.000000000000e+00
    2.400000000000e+00 0.000000000000e+00-1.024454832077e-08 9.300000000000e+01
    1.008000000000e+05 4.000000000000e+00
